[
    {
        "Altitude(m)": 554015.3421824831,
        "Argument of Periapsis(deg)": 0.006622991110713501,
        "Eccentricity": 0.0,
        "Inclination(deg)": 53.0,
        "Latitude(deg)": 22.288059084140585,
        "Longitude(deg)": 42.11631606542168,
        "Mean Anomaly(deg)": 28.273392867577584,
        "RAAN(deg)": 124.99014336852804,
        "Satellite Name": "Starlink Shell 1 551",
        "Satellite Number": 551,
        "Semi-Major Axis(m)": 6931778.249405717,
        "Time(s)": 190
    },
    {
        "Altitude(m)": 554065.0042793975,
        "Argument of Periapsis(deg)": 0.0069715695902247375,
        "Eccentricity": 0.0,
        "Inclination(deg)": 53.0,
        "Latitude(deg)": 22.766532869176196,
        "Longitude(deg)": 42.516196345187375,
        "Mean Anomaly(deg)": 28.900224071134303,
        "RAAN(deg)": 124.98962459845055,
        "Satellite Name": "Starlink Shell 1 551",
        "Satellite Number": 551,
        "Semi-Major Axis(m)": 6931778.249405717,
        "Time(s)": 200
    },
    {
        "Altitude(m)": 554116.5036249094,
        "Argument of Periapsis(deg)": 0.007320148069735974,
        "Eccentricity": 0.0,
        "Inclination(deg)": 53.0,
        "Latitude(deg)": 23.243752052282353,
        "Longitude(deg)": 42.91915658477081,
        "Mean Anomaly(deg)": 29.527055274691026,
        "RAAN(deg)": 124.98910582837308,
        "Satellite Name": "Starlink Shell 1 551",
        "Satellite Number": 551,
        "Semi-Major Axis(m)": 6931778.249405717,
        "Time(s)": 210
    },
    {
        "Altitude(m)": 554169.794710094,
        "Argument of Periapsis(deg)": 0.007668726549247212,
        "Eccentricity": 0.0,
        "Inclination(deg)": 53.0,
        "Latitude(deg)": 23.719678691923793,
        "Longitude(deg)": 43.32528252399426,
        "Mean Anomaly(deg)": 30.15388647824775,
        "RAAN(deg)": 124.98858705829561,
        "Satellite Name": "Starlink Shell 1 551",
        "Satellite Number": 551,
        "Semi-Major Axis(m)": 6931778.249405717,
        "Time(s)": 220
    },
    {
        "Altitude(m)": 554224.831295092,
        "Argument of Periapsis(deg)": 0.00801730502875845,
        "Eccentricity": 0.0,
        "Inclination(deg)": 53.0,
        "Latitude(deg)": 24.194274090738933,
        "Longitude(deg)": 43.73466110982838,
        "Mean Anomaly(deg)": 30.780717681804468,
        "RAAN(deg)": 124.98806828821813,
        "Satellite Name": "Starlink Shell 1 551",
        "Satellite Number": 551,
        "Semi-Major Axis(m)": 6931778.249405717,
        "Time(s)": 230
    },
    {
        "Altitude(m)": 554281.5664343254,
        "Argument of Periapsis(deg)": 0.008365883508269684,
        "Eccentricity": 0.0,
        "Inclination(deg)": 53.0,
        "Latitude(deg)": 24.66749877057741,
        "Longitude(deg)": 44.14738101965158,
        "Mean Anomaly(deg)": 31.407548885361166,
        "RAAN(deg)": 124.98754951814067,
        "Satellite Name": "Starlink Shell 1 551",
        "Satellite Number": 551,
        "Semi-Major Axis(m)": 6931778.249405717,
        "Time(s)": 240
    },
    {
        "Altitude(m)": 554339.9525019628,
        "Argument of Periapsis(deg)": 0.008714461987780921,
        "Eccentricity": 0.0,
        "Inclination(deg)": 53.0,
        "Latitude(deg)": 25.139312447006457,
        "Longitude(deg)": 44.56353167040741,
        "Mean Anomaly(deg)": 32.03438008891786,
        "RAAN(deg)": 124.9870307480632,
        "Satellite Name": "Starlink Shell 1 551",
        "Satellite Number": 551,
        "Semi-Major Axis(m)": 6931778.249405717,
        "Time(s)": 250
    },
    {
        "Altitude(m)": 554399.9412177377,
        "Argument of Periapsis(deg)": 0.009063040467292158,
        "Eccentricity": 0.0,
        "Inclination(deg)": 53.0,
        "Latitude(deg)": 25.609674003287502,
        "Longitude(deg)": 44.98320373927459,
        "Mean Anomaly(deg)": 32.66121129247458,
        "RAAN(deg)": 124.98651197798571,
        "Satellite Name": "Starlink Shell 1 551",
        "Satellite Number": 551,
        "Semi-Major Axis(m)": 6931778.249405717,
        "Time(s)": 260
    },
    {
        "Altitude(m)": 554461.4836730089,
        "Argument of Periapsis(deg)": 0.009411618946803396,
        "Eccentricity": 0.0,
        "Inclination(deg)": 53.0,
        "Latitude(deg)": 26.078541463821633,
        "Longitude(deg)": 45.406489682831676,
        "Mean Anomaly(deg)": 33.28804249603133,
        "RAAN(deg)": 124.98599320790825,
        "Satellite Name": "Starlink Shell 1 551",
        "Satellite Number": 551,
        "Semi-Major Axis(m)": 6931778.249405717,
        "Time(s)": 270
    },
    {
        "Altitude(m)": 554524.5303571323,
        "Argument of Periapsis(deg)": 0.009760197426314633,
        "Eccentricity": 0.0,
        "Inclination(deg)": 53.0,
        "Latitude(deg)": 26.545871967062954,
        "Longitude(deg)": 45.83348274168669,
        "Mean Anomaly(deg)": 33.91487369958802,
        "RAAN(deg)": 124.98547443783077,
        "Satellite Name": "Starlink Shell 1 551",
        "Satellite Number": 551,
        "Semi-Major Axis(m)": 6931778.249405717,
        "Time(s)": 280
    },
    {
        "Altitude(m)": 554589.0311840749,
        "Argument of Periapsis(deg)": 0.01010877590582587,
        "Eccentricity": 0.0,
        "Inclination(deg)": 53.0,
        "Latitude(deg)": 27.011621737908417,
        "Longitude(deg)": 46.26427745615444,
        "Mean Anomaly(deg)": 34.54170490314475,
        "RAAN(deg)": 124.9849556677533,
        "Satellite Name": "Starlink Shell 1 551",
        "Satellite Number": 551,
        "Semi-Major Axis(m)": 6931778.249405717,
        "Time(s)": 290
    },
    {
        "Altitude(m)": 554654.9355192712,
        "Argument of Periapsis(deg)": 0.010457354385337106,
        "Eccentricity": 0.0,
        "Inclination(deg)": 53.0,
        "Latitude(deg)": 27.475746059566653,
        "Longitude(deg)": 46.698970179927635,
        "Mean Anomaly(deg)": 35.16853610670144,
        "RAAN(deg)": 124.98443689767583,
        "Satellite Name": "Starlink Shell 1 551",
        "Satellite Number": 551,
        "Semi-Major Axis(m)": 6931778.249405717,
        "Time(s)": 300
    },
    {
        "Altitude(m)": 554722.1922067148,
        "Argument of Periapsis(deg)": 0.010805932864848343,
        "Eccentricity": 0.0,
        "Inclination(deg)": 53.0,
        "Latitude(deg)": 27.938199244913076,
        "Longitude(deg)": 47.137658078677205,
        "Mean Anomaly(deg)": 35.795367310258165,
        "RAAN(deg)": 124.98391812759837,
        "Satellite Name": "Starlink Shell 1 551",
        "Satellite Number": 551,
        "Semi-Major Axis(m)": 6931778.249405717,
        "Time(s)": 310
    },
    {
        "Altitude(m)": 554790.7495962831,
        "Argument of Periapsis(deg)": 0.01115451134435958,
        "Eccentricity": 0.0,
        "Inclination(deg)": 53.0,
        "Latitude(deg)": 28.39893460734554,
        "Longitude(deg)": 47.580439639124286,
        "Mean Anomaly(deg)": 36.422198513814905,
        "RAAN(deg)": 124.98339935752088,
        "Satellite Name": "Starlink Shell 1 551",
        "Satellite Number": 551,
        "Semi-Major Axis(m)": 6931778.249405717,
        "Time(s)": 320
    },
    {
        "Altitude(m)": 554860.5555712398,
        "Argument of Periapsis(deg)": 0.011503089823870818,
        "Eccentricity": 0.0,
        "Inclination(deg)": 53.0,
        "Latitude(deg)": 28.857904431152253,
        "Longitude(deg)": 48.027415175490944,
        "Mean Anomaly(deg)": 37.0490297173716,
        "RAAN(deg)": 124.98288058744342,
        "Satellite Name": "Starlink Shell 1 551",
        "Satellite Number": 551,
        "Semi-Major Axis(m)": 6931778.249405717,
        "Time(s)": 330
    },
    {
        "Altitude(m)": 554931.5575759411,
        "Argument of Periapsis(deg)": 0.011851668303382053,
        "Eccentricity": 0.0,
        "Inclination(deg)": 53.0,
        "Latitude(deg)": 29.315059941406936,
        "Longitude(deg)": 48.47868582022175,
        "Mean Anomaly(deg)": 37.67586092092833,
        "RAAN(deg)": 124.98236181736594,
        "Satellite Name": "Starlink Shell 1 551",
        "Satellite Number": 551,
        "Semi-Major Axis(m)": 6931778.249405717,
        "Time(s)": 340
    },
    {
        "Altitude(m)": 555003.7026437233,
        "Argument of Periapsis(deg)": 0.012200246782893292,
        "Eccentricity": 0.0,
        "Inclination(deg)": 53.0,
        "Latitude(deg)": 29.77035127341498,
        "Longitude(deg)": 48.934354024474246,
        "Mean Anomaly(deg)": 38.30269212448502,
        "RAAN(deg)": 124.98184304728845,
        "Satellite Name": "Starlink Shell 1 551",
        "Satellite Number": 551,
        "Semi-Major Axis(m)": 6931778.249405717,
        "Time(s)": 350
    },
    {
        "Altitude(m)": 555076.9374249222,
        "Argument of Periapsis(deg)": 0.012548825262404526,
        "Eccentricity": 0.0,
        "Inclination(deg)": 53.0,
        "Latitude(deg)": 30.223727441733335,
        "Longitude(deg)": 49.39452405523962,
        "Mean Anomaly(deg)": 38.92952332804172,
        "RAAN(deg)": 124.981324277211,
        "Satellite Name": "Starlink Shell 1 551",
        "Satellite Number": 551,
        "Semi-Major Axis(m)": 6931778.249405717,
        "Time(s)": 360
    },
    {
        "Altitude(m)": 555151.208215075,
        "Argument of Periapsis(deg)": 0.012897403741915765,
        "Eccentricity": 0.0,
        "Inclination(deg)": 53.0,
        "Latitude(deg)": 30.67513630878938,
        "Longitude(deg)": 49.85930097593559,
        "Mean Anomaly(deg)": 39.55635453159849,
        "RAAN(deg)": 124.98080550713354,
        "Satellite Name": "Starlink Shell 1 551",
        "Satellite Number": 551,
        "Semi-Major Axis(m)": 6931778.249405717,
        "Time(s)": 370
    }
]